      2.10          N: GNSS NAV DATA                        RINEX VERSION / TYPE
fic2rin                                 06/20/2022 00:17:46 PGM / RUN BY / DATE
                                                            END OF HEADER
8  22  6 19  1 59 44.0 -.727353617549D-04 -.159161572810D-11  .000000000000D+00
     .700000000000D+01  .667187500000D+02  .412124309489D-08  .231748079021D+01
     .341795384884D-05  .744343048427D-02  .954046845436D-05  .515378262138D+04
     .718400000000D+04 -.670552253723D-07  .103792454847D+01  .502914190292D-07
     .963267966537D+00  .198093750000D+03  .172618439257D+00 -.784711257802D-08
    -.178578867098D-09  .100000000000D+01  .221500000000D+04  .000000000000D+00
     .240000000000D+01  .000000000000D+00  .512227416039D-08  .700000000000D+01
     .000000000000D+00  .400000000000D+01
28 22  6 19  2  0  0.0  .335664022714D-03 -.727595761418D-11  .000000000000D+00
     .360000000000D+02  .800000000000D+01  .427446376286D-08  .283124538380D+01
     .488013029099D-06  .165243723895D-01  .800937414169D-05  .515367096710D+04
     .720000000000D+04  .189989805222D-06  .105743424341D+00  .838190317154D-07
     .968334581422D+00  .226375000000D+03 -.127564906258D+01 -.758495880112D-08
    -.592167523297D-09  .100000000000D+01  .221500000000D+04  .000000000000D+00
     .240000000000D+01  .630000000000D+02 -.111758708954D-07  .360000000000D+02
     .000000000000D+00  .400000000000D+01
11 22  6 19  2 29 36.0 -.141807831824D-04  .238742359215D-11  .000000000000D+00
     .160000000000D+03  .599062500000D+02  .455697553061D-08  .263166168510D+01
     .305660068989D-05  .472474377602D-03  .306777656078D-05  .515359244728D+04
     .897600000000D+04  .000000000000D+00  .216186697423D+01 -.260770320892D-07
     .963084288395D+00  .315250000000D+03  .280657401794D+01 -.839392106908D-08
     .334299639208D-09  .100000000000D+01  .221500000000D+04  .000000000000D+00
     .240000000000D+01  .000000000000D+00 -.838190317154D-08  .672000000000D+03
     .180000000000D+04  .400000000000D+01
14 22  6 19  3 29 36.0 -.111699569970D-03 -.454747350886D-12  .000000000000D+00
     .620000000000D+02 -.812500000000D+00  .482627246219D-08 -.390839355868D+00
    -.275671482086D-06  .200790201779D-02  .771693885326D-05  .515365418243D+04
     .125760000000D+05  .782310962677D-07  .505177767710D-01  .130385160446D-07
     .952656407906D+00  .229812500000D+03 -.313268766058D+01 -.814355349740D-08
    -.603239413057D-09  .100000000000D+01  .221500000000D+04  .000000000000D+00
     .240000000000D+01  .000000000000D+00 -.791624188423D-08  .830000000000D+03
     .540000000000D+04  .400000000000D+01
2  22  6 19  4  0  0.0 -.652536284178D-03  .454747350886D-12  .000000000000D+00
     .108000000000D+03  .688437500000D+02  .439125434194D-08  .136591531542D+01
     .330992043018D-05  .204005452106D-01  .423192977905D-05  .515368326187D+04
     .144000000000D+05  .100582838058D-06  .202904735152D+01 -.562518835068D-06
     .965924931519D+00  .297000000000D+03 -.141247394140D+01 -.833499004293D-08
     .358229207399D-09  .100000000000D+01  .221500000000D+04  .000000000000D+00
     .240000000000D+01  .000000000000D+00 -.176951289177D-07  .108000000000D+03
     .720000000000D+04  .400000000000D+01
1  22  6 19  4  0  0.0  .338369049132D-03 -.784439180279D-11  .000000000000D+00
     .630000000000D+02  .481562500000D+02  .391016287398D-08  .120060429241D+01
     .244937837124D-05  .120118875057D-01  .459142029285D-05  .515366621590D+04
     .144000000000D+05 -.173225998878D-06  .212092566694D+01  .838190317154D-07
     .987863161174D+00  .305750000000D+03  .922711785598D+00 -.816319717279D-08
     .145720355552D-09  .100000000000D+01  .221500000000D+04  .000000000000D+00
     .340000000000D+01  .000000000000D+00  .512227416039D-08  .630000000000D+02
     .720000000000D+04  .400000000000D+01
8  22  6 19  4  0  0.0 -.727470032871D-04 -.159161572810D-11  .000000000000D+00
     .800000000000D+01  .595937500000D+02  .409874215763D-08 -.291332818701D+01
     .306591391563D-05  .744334748015D-02  .954978168011D-05  .515378304291D+04
     .144000000000D+05 -.596046447754D-07  .103786798620D+01  .000000000000D+00
     .963266831313D+00  .198062500000D+03  .172686356691D+00 -.782425448303D-08
    -.166435504135D-09  .100000000000D+01  .221500000000D+04  .000000000000D+00
     .240000000000D+01  .000000000000D+00  .512227416039D-08  .800000000000D+01
     .720000000000D+04  .400000000000D+01
7  22  6 19  4  0  0.0  .321521889418D-03 -.682121026330D-12  .000000000000D+00
     .200000000000D+02  .338125000000D+02  .523878964519D-08  .546138660547D+00
     .203587114811D-05  .162462580483D-01  .729039311409D-05  .515365127373D+04
     .144000000000D+05 -.149011611938D-06 -.102937706192D+01  .171363353729D-06
     .950460197751D+00  .234937500000D+03 -.225962636809D+01 -.855749931134D-08
     .664313385605D-10  .100000000000D+01  .221500000000D+04  .000000000000D+00
     .240000000000D+01  .000000000000D+00 -.111758708954D-07  .200000000000D+02
     .720000000000D+04  .400000000000D+01
5  22  6 19  4  0  0.0 -.860518775880D-04 -.136424205266D-11  .000000000000D+00
     .630000000000D+02 -.950000000000D+02  .464662212189D-08 -.244516946767D+01
    -.519677996635D-05  .604698422831D-02  .408664345741D-05  .515374402618D+04
     .144000000000D+05  .670552253723D-07  .311254380821D+01  .186264514923D-08
     .961525401427D+00  .296500000000D+03  .104320667459D+01 -.828320217148D-08
     .189293599124D-10  .100000000000D+01  .221500000000D+04  .000000000000D+00
     .340000000000D+01  .000000000000D+00 -.111758708954D-07  .630000000000D+02
     .720000000000D+04  .400000000000D+01
12 22  6 19  4  0  0.0 -.233342405409D-03 -.591171556152D-11  .000000000000D+00
     .630000000000D+02  .656250000000D+01  .454947521819D-08 -.816642184653D-01
     .337138772011D-06  .859782169573D-02  .773184001446D-05  .515377553940D+04
     .144000000000D+05 -.894069671631D-07  .837259688941D-01  .109896063805D-06
     .969271873036D+00  .235187500000D+03  .130553729378D+01 -.812283834882D-08
    -.536093759028D-09  .100000000000D+01  .221500000000D+04  .000000000000D+00
     .240000000000D+01  .000000000000D+00 -.125728547573D-07  .630000000000D+02
     .720000000000D+04  .400000000000D+01
6  22  6 19  4  0  0.0  .349543988705D-03  .156887836056D-10  .000000000000D+00
     .460000000000D+02  .575625000000D+02  .386658963041D-08  .142748310785D+01
     .309757888317D-05  .248187477700D-02  .395253300667D-05  .515374479103D+04
     .144000000000D+05  .162050127983D-06  .211264519951D+01  .558793544769D-08
     .987193704992D+00  .316500000000D+03 -.852532819940D+00 -.799783314185D-08
     .332156692802D-09  .100000000000D+01  .221500000000D+04  .000000000000D+00
     .240000000000D+01  .000000000000D+00  .372529029846D-08  .460000000000D+02
     .720000000000D+04  .400000000000D+01
4  22  6 19  4  0  0.0 -.155506655574D-03  .409272615798D-11  .000000000000D+00
     .210000000000D+02 -.503437500000D+02  .450304471274D-08  .297916494995D+01
    -.251829624176D-05  .185954757035D-02  .104028731585D-04  .515360771370D+04
     .144000000000D+05 -.298023223877D-07 -.204747365030D+01 -.186264514923D-07
     .961234039347D+00  .182562500000D+03 -.297120782399D+01 -.786389899153D-08
     .262868092368D-09  .100000000000D+01  .221500000000D+04  .000000000000D+00
     .240000000000D+01  .000000000000D+00 -.465661287308D-08  .277000000000D+03
     .720000000000D+04  .400000000000D+01
3  22  6 19  4  0  0.0 -.282977707684D-03 -.117097442853D-10  .000000000000D+00
     .160000000000D+03 -.782812500000D+02  .434589530970D-08  .951092475333D-01
    -.423565506935D-05  .428580609150D-02  .501982867718D-05  .515360903549D+04
     .144000000000D+05 -.242143869400D-07 -.312861359173D+01  .372529029846D-08
     .974514149272D+00  .294500000000D+03  .979933451762D+00 -.818855537191D-08
    -.210723063176D-10  .100000000000D+01  .221500000000D+04  .000000000000D+00
     .485000000000D+01  .000000000000D+00  .186264514923D-08  .160000000000D+03
     .720000000000D+04  .400000000000D+01
16 22  6 19  4  0  0.0 -.509948004037D-03 -.261479726760D-11  .000000000000D+00
     .400000000000D+02  .337500000000D+01  .440304054717D-08 -.191964939397D+01
     .180676579475D-06  .127119321842D-01  .725314021111D-05  .515366253471D+04
     .144000000000D+05  .113621354103D-06  .102254873817D+00 -.134110450745D-06
     .969155421831D+00  .244218750000D+03  .729904260539D+00 -.782068290569D-08
    -.383587406527D-09  .100000000000D+01  .221500000000D+04  .000000000000D+00
     .240000000000D+01  .000000000000D+00 -.102445483208D-07  .400000000000D+02
     .720000000000D+04  .400000000000D+01
10 22  6 19  4  0  0.0 -.460438895971D-03 -.146656020661D-10  .000000000000D+00
     .400000000000D+02 -.819062500000D+02  .439732602342D-08 -.810123502153D+00
    -.410899519920D-05  .765919929836D-02  .441819429398D-05  .515368371010D+04
     .144000000000D+05  .143423676491D-06 -.313135647681D+01  .160187482834D-06
     .974315063676D+00  .299281250000D+03 -.250002242369D+01 -.823820029697D-08
     .785747015231D-11  .100000000000D+01  .221500000000D+04  .000000000000D+00
     .240000000000D+01  .000000000000D+00  .232830643654D-08  .400000000000D+02
     .720000000000D+04  .400000000000D+01
29 22  6 19  4  0  0.0 -.525441486388D-03 -.363797880709D-11  .000000000000D+00
     .400000000000D+02  .755312500000D+02  .375801367921D-08 -.279617304052D+01
     .385195016861D-05  .222949997988D-02  .104233622551D-04  .515369500923D+04
     .144000000000D+05  .279396772385D-07  .113495271588D+01 -.745058059692D-08
     .980550958260D+00  .189312500000D+03  .231063808013D+01 -.767960560068D-08
    -.221437795202D-09  .100000000000D+01  .221500000000D+04  .000000000000D+00
     .240000000000D+01  .000000000000D+00 -.102445483208D-07  .400000000000D+02
     .720000000000D+04  .400000000000D+01
